{
  "type": "FeatureCollection",
  "features": [
    {
      "type": "Feature",
      "properties": {
        "norad_id": 59600,
        "name": "GSAT0227 (GALILEO 30)",
        "group": "galileo",
        "lat": 8.12096825095778,
        "lon": -79.43441521430768,
        "alt_km": 23215.86005570646,
        "timestamp": "2025-12-12T03:50:52.680388+00:00",
        "meta_object_name": "GSAT0227 (GALILEO 30)",
        "meta_object_id": "2024-079C",
        "meta_epoch": "2025-12-08T22:48:42.234912",
        "meta_mean_motion": 1.70474719,
        "meta_eccentricity": 0.0003262,
        "meta_inclination": 54.9946,
        "meta_ra_of_asc_node": 106.4003,
        "meta_arg_of_pericenter": 114.182,
        "meta_mean_anomaly": 245.816,
        "meta_ephemeris_type": 0,
        "meta_classification_type": "U",
        "meta_norad_cat_id": 59600,
        "meta_element_set_no": 999,
        "meta_rev_at_epoch": 1012,
        "meta_bstar": 0,
        "meta_mean_motion_dot": 9e-08,
        "meta_mean_motion_ddot": 0,
        "tle_line1": "1 59600U 24079C   25342.95048883  .00000009  00000+0  00000+0 0  9990",
        "tle_line2": "2 59600  54.9946 106.4003 0003262 114.1820 245.8160  1.70474719 10123"
      },
      "geometry": {
        "type": "Point",
        "coordinates": [
          -79.43441521430768,
          8.12096825095778
        ]
      }
    },
    {
      "type": "Feature",
      "properties": {
        "norad_id": 61182,
        "name": "GSAT0232 (GALILEO 32)",
        "group": "galileo",
        "lat": 3.6398943173917515,
        "lon": -131.0165073503632,
        "alt_km": 23227.194306958536,
        "timestamp": "2025-12-12T03:50:52.680399+00:00",
        "meta_object_name": "GSAT0232 (GALILEO 32)",
        "meta_object_id": "2024-167A",
        "meta_epoch": "2025-12-10T16:21:03.753216",
        "meta_mean_motion": 1.70473375,
        "meta_eccentricity": 0.00019436,
        "meta_inclination": 55.2414,
        "meta_ra_of_asc_node": 226.4872,
        "meta_arg_of_pericenter": 211.0668,
        "meta_mean_anomaly": 325.7159,
        "meta_ephemeris_type": 0,
        "meta_classification_type": "U",
        "meta_norad_cat_id": 61182,
        "meta_element_set_no": 999,
        "meta_rev_at_epoch": 766,
        "meta_bstar": 0,
        "meta_mean_motion_dot": 9e-08,
        "meta_mean_motion_ddot": 0,
        "tle_line1": "1 61182U 24167A   25344.68129344  .00000009  00000+0  00000+0 0  9990",
        "tle_line2": "2 61182  55.2414 226.4872 0001943 211.0668 325.7159  1.70473375  7661"
      },
      "geometry": {
        "type": "Point",
        "coordinates": [
          -131.0165073503632,
          3.6398943173917515
        ]
      }
    },
    {
      "type": "Feature",
      "properties": {
        "norad_id": 61183,
        "name": "GSAT0226 (GALILEO 31)",
        "group": "galileo",
        "lat": 46.99724183522544,
        "lon": -1.6094189594951662,
        "alt_km": 23214.260523408815,
        "timestamp": "2025-12-12T03:50:52.680411+00:00",
        "meta_object_name": "GSAT0226 (GALILEO 31)",
        "meta_object_id": "2024-167B",
        "meta_epoch": "2025-12-09T21:57:08.318304",
        "meta_mean_motion": 1.70473488,
        "meta_eccentricity": 8.079e-05,
        "meta_inclination": 55.2402,
        "meta_ra_of_asc_node": 226.5136,
        "meta_arg_of_pericenter": 118.4795,
        "meta_mean_anomaly": 60.4734,
        "meta_ephemeris_type": 0,
        "meta_classification_type": "U",
        "meta_norad_cat_id": 61183,
        "meta_element_set_no": 999,
        "meta_rev_at_epoch": 762,
        "meta_bstar": 0,
        "meta_mean_motion_dot": 1e-07,
        "meta_mean_motion_ddot": 0,
        "tle_line1": "1 61183U 24167B   25343.91467961  .00000010  00000+0  00000+0 0  9998",
        "tle_line2": "2 61183  55.2402 226.5136 0000807 118.4795  60.4734  1.70473488  7625"
      },
      "geometry": {
        "type": "Point",
        "coordinates": [
          -1.6094189594951662,
          46.99724183522544
        ]
      }
    }
  ]
}